GSAT-18                 
1 41793U 16060A   26065.60877939 -.00000080  00000+0  00000+0 0  9992
2 41793   0.0167 151.1651 0003335 248.8474  57.4400  1.00271796 34494
SKY MUSTER 2 (NBN1B)    
1 41794U 16060B   26064.54056784  .00000000  00000+0  00000+0 0  9993
2 41794   0.0200 162.1050 0001634 199.1792 141.3969  1.00267970 34480
HIMAWARI-9              
1 41836U 16064A   26065.82336351 -.00000278  00000+0  00000+0 0  9995
2 41836   0.0138 164.4008 0001263 214.7480 222.5760  1.00271706 34181
SHIJIAN-17 (SJ-17)      
1 41838U 16065A   26064.84834878  .00000102  00000+0  00000+0 0  9991
2 41838   5.4902  73.8481 0001020 311.6140 111.7929  0.99862123 34171
GOES 16                 
1 41866U 16071A   26065.56084899 -.00000095  00000+0  00000+0 0  9991
2 41866   0.1362  89.1476 0002391 221.4894 310.8421  1.00271524 34074
TIANLIAN 1-04           
1 41869U 16072A   26065.75931655  .00000027  00000+0  00000+0 0  9991
2 41869   0.6024  83.5437 0040702  95.4447  75.5926  1.00273770 34275
WGS F8 (USA 272)        
1 41879U 16075A   26064.93517031 -.00000209  00000+0  00000+0 0  9995
2 41879   0.0105 184.3362 0000317 243.3560 222.4244  1.00270339 33784
FENGYUN 4A              
1 41882U 16077A   26065.81998348 -.00000360  00000+0  00000+0 0  9991
2 41882   2.0622  81.3883 0007272 135.0583   6.9078  1.00278241 33901
ECHOSTAR 19             
1 41893U 16079A   26064.15391735 -.00000147  00000+0  00000+0 0  9991
2 41893   0.0119 113.9273 0001548 231.2456 136.0238  1.00272018 33667
JCSAT-110A (JCSAT-15)   
1 41903U 16082A   26065.63045363 -.00000354  00000+0  00000+0 0  9994
2 41903   0.0182 146.4938 0000897 236.3316 118.5368  1.00270690 33736
STAR ONE D1             
1 41904U 16082B   26065.56492235 -.00000215  00000+0  00000+0 0  9997
2 41904   0.0251  99.1860 0002186 251.6455 292.8073  1.00270668 33744
TJS-2                   
1 41911U 17001A   26065.59482248 -.00000010  00000+0  00000+0 0  9996
2 41911   0.5682  86.9079 0001771 255.0108 103.0541  1.00272374 33685
SBIRS GEO-4 (USA 273)   
1 41937U 17004A   26064.23080381  .00000116  00000+0  00000+0 0  9995
2 41937   2.0504  40.1008 0002397 304.5511 282.2945  1.00272828 33558
HISPASAT 36W-1          
1 41942U 17006A   26065.28924216 -.00000249  00000+0  00000+0 0  9991
2 41942   0.0108 350.6759 0000978 355.7382 245.7209  1.00271588 33213
TELKOM 3S               
1 41944U 17007A   26064.72753287 -.00000369  00000+0  00000+0 0  9993
2 41944   0.0091 139.4776 0002372 209.9529 193.9163  1.00269901 33108
INTELSAT 32E (IS-32E)   
1 41945U 17007B   26065.50174978 -.00000273  00000+0  00000+0 0  9999
2 41945   0.0149 127.3403 0000230 194.7853 339.5296  1.00272679 33198
ECHOSTAR 23             
1 42070U 17014A   26065.55980899 -.00000061  00000+0  00000+0 0  9994
2 42070   0.0182 154.3844 0001801 191.2542 270.2604  1.00270757 32891
